LUCKY-7                 
1 44406U 19038W   22238.36071056  .00002106  00000+0  11223-3 0  9994
2 44406  97.6439 207.8127 0020619 247.4967 112.4082 15.16168729173557
D-STAR ONE (EXOCONNECT) 
1 44410U 19038AA  22238.40814061  .00005981  00000+0  26958-3 0  9990
2 44410  97.6344 209.5769 0015916 242.0310 117.9315 15.21319343173729
NARSSCUBE-2             
1 44415U 19022E   22238.42941021  .00002951  00000+0  94490-4 0  9998
2 44415  51.6400 138.6844 0009804 312.0133  48.0014 15.35716826170867
DUCHIFAT-3              
1 44854U 19089C   22238.76342089  .00001827  00000+0  14489-3 0  9994
2 44854  36.9667  43.3944 0007455  62.4749  56.7283 15.01444352148502
OPS-SAT                 
1 44878U 19092F   22238.47844534  .00003954  00000+0  18099-3 0  9998
2 44878  97.4808  61.8788 0013608  95.6291 264.6496 15.21014195148837
FLORIPASAT-1            
1 44885U 19093G   22238.77383880  .00000981  00000+0  12616-3 0  9998
2 44885  97.8940 318.4417 0013684 327.6350  32.3993 14.83342281145278
HUSKYSAT-1 (HO-107)     
1 45119U 19071J   22238.25718223  .00011594  00000+0  23226-3 0  9992
2 45119  51.6371  75.7317 0008866  69.9699 290.2243 15.47172202144160
BY70-2                  
1 45857U 20042B   22238.79856914  .00003383  00000+0  44849-3 0  9991
2 45857  97.9534 314.9947 0009109 242.6320 117.3912 14.80502895115860
SALSAT                  
1 46495U 20068K   22238.45685266  .00001600  00000+0  11768-3 0  9995
2 46495  97.7318 179.7998 0017431  44.2012 316.0603 15.04746305104711
NETSAT-4                
1 46504U 20068U   22238.45252860  .00002156  00000+0  16145-3 0  9997
2 46504  97.7268 178.1303 0013383  85.1444 275.1303 15.03723049104568
NETSAT-3                
1 46505U 20068V   22238.40333285  .00000798  00000+0  62753-4 0  9991
2 46505  97.7275 177.9920 0012921  95.2412 265.0279 15.03672847104562
NETSAT-1                
1 46506U 20068W   22238.42233269  .00001276  00000+0  97694-4 0  9999
2 46506  97.7275 177.9350 0011785 106.1438 254.1085 15.03625713104561
NETSAT-2                
1 46507U 20068X   22238.49934168  .00001693  00000+0  12827-3 0  9990
2 46507  97.7269 178.0012 0010606 111.5972 248.6350 15.03609929104526
BY70-3                  
1 46839U 20079N   22238.79994961  .00012234  00000+0  26477-3 0  9999
2 46839  97.1945 310.0826 0006599  85.6543  54.2970 15.44583357101090
UVSQ-SAT                
1 47438U 21006AB  22238.44203341  .00002671  00000+0  14091-3 0  9996
2 47438  97.4321 296.0252 0012521  39.4397 320.7745 15.16347595 87881
SOMP2B                  
1 47445U 21006AJ  22238.45603386  .00002359  00000+0  12614-3 0  9990
2 47445  97.4294 295.6443 0012334  43.5669 316.6536 15.15983030 87875
DIY-1 (ARDUIQUBE)       
1 47963U 21022AH  22238.51827798  .00006320  00000+0  33900-3 0  9998
2 47963  97.5247 139.1284 0014009 247.9963 111.9781 15.15231650 77558
